EUTELSAT 9B             
1 41310U 16005A   26032.92032995  .00000052  00000+0  00000+0 0  9998
2 41310   0.0360  67.7434 0004721 233.2538 171.3976  1.00272553 36762
EUTELSAT 65 WEST A      
1 41382U 16014A   26032.76285576 -.00000286  00000+0  00000+0 0  9994
2 41382   0.0617 319.4410 0002440 349.9816  31.9411  1.00272611 36172
EUTELSAT 117 WEST B     
1 41589U 16038B   26032.68137865 -.00000021  00000+0  00000+0 0  9994
2 41589   0.0197 232.5211 0000144 257.2133 130.4218  1.00271879 35309
EUTELSAT 172B           
1 42741U 17029B   26032.82475286 -.00000017  00000+0  00000+0 0  9999
2 42741   0.0203 127.9922 0000259  87.1018  25.8117  1.00268058 32377
EUTELSAT 7C             
1 44334U 19034B   26032.90947442  .00000038  00000+0  00000+0 0  9996
2 44334   0.0772 181.2308 0003478 117.8009 167.4338  1.00271003  5479
EUTELSAT 5 WEST B       
1 44624U 19067A   26032.91755661 -.00000052  00000+0  00000+0 0  9992
2 44624   0.0926 307.7531 0003280   6.4626 143.1747  1.00271823 23086
EUTELSAT KONNECT        
1 45027U 20005B   26032.90947442  .00000039  00000+0  00000+0 0  9997
2 45027   0.0668  95.5862 0001530 183.9480 187.1544  1.00270378 22986
EUTELSAT QUANTUM        
1 49056U 21069B   26032.92795667  .00000116  00000+0  00000+0 0  9992
2 49056   0.0111  51.0895 0003259 260.2923 202.4786  1.00271511 16576
EUTELSAT KONNECT VHTS   
1 53765U 22110A   26032.90947442  .00000006  00000+0  00000+0 0  9998
2 53765   0.0587  99.8727 0003165 195.9987 166.3150  1.00268784  5488
EUTELSAT HOTBIRD 13F    
1 54048U 22134A   26032.92110996  .00000077  00000+0  00000+0 0  9995
2 54048   0.0562 279.0990 0002241  76.8405 120.7421  1.00271613 12024
EUTELSAT HOTBIRD 13G    
1 54225U 22146A   26032.89836477  .00000077  00000+0  00000+0 0  9990
2 54225   0.0523 246.7585 0001826 301.3848 280.3103  1.00271639  6115
EUTELSAT 10B            
1 54259U 22157A   26032.92050329  .00000058  00000+0  00000+0 0  9996
2 54259   0.0577  98.5269 0000506   7.8758   7.0533  1.00273653 11671
EUTELSAT 36D            
1 59346U 24059A   26032.92561666  .00000000  00000+0  00000+0 0  9999
2 59346   0.0269 100.5021 0000937 200.6515 200.0665  1.00279693  6791
