[{"OBJECT_NAME":"EUTELSAT 9B","OBJECT_ID":"2016-005A","EPOCH":"2026-02-01T22:05:16.507680","MEAN_MOTION":1.00272553,"ECCENTRICITY":0.00047217,"INCLINATION":0.036,"RA_OF_ASC_NODE":67.7434,"ARG_OF_PERICENTER":233.2538,"MEAN_ANOMALY":171.3976,"EPHEMERIS_TYPE":0,"CLASSIFICATION_TYPE":"U","NORAD_CAT_ID":41310,"ELEMENT_SET_NO":999,"REV_AT_EPOCH":3676,"BSTAR":0,"MEAN_MOTION_DOT":5.2e-7,"MEAN_MOTION_DDOT":0},{"OBJECT_NAME":"EUTELSAT 65 WEST A","OBJECT_ID":"2016-014A","EPOCH":"2026-02-01T18:18:30.737664","MEAN_MOTION":1.00272611,"ECCENTRICITY":0.000244,"INCLINATION":0.0617,"RA_OF_ASC_NODE":319.441,"ARG_OF_PERICENTER":349.9816,"MEAN_ANOMALY":31.9411,"EPHEMERIS_TYPE":0,"CLASSIFICATION_TYPE":"U","NORAD_CAT_ID":41382,"ELEMENT_SET_NO":999,"REV_AT_EPOCH":3617,"BSTAR":0,"MEAN_MOTION_DOT":-2.86e-6,"MEAN_MOTION_DDOT":0},{"OBJECT_NAME":"EUTELSAT 117 WEST B","OBJECT_ID":"2016-038B","EPOCH":"2026-02-01T16:21:11.115360","MEAN_MOTION":1.00271879,"ECCENTRICITY":1.443e-5,"INCLINATION":0.0197,"RA_OF_ASC_NODE":232.5211,"ARG_OF_PERICENTER":257.2133,"MEAN_ANOMALY":130.4218,"EPHEMERIS_TYPE":0,"CLASSIFICATION_TYPE":"U","NORAD_CAT_ID":41589,"ELEMENT_SET_NO":999,"REV_AT_EPOCH":3530,"BSTAR":0,"MEAN_MOTION_DOT":-2.1e-7,"MEAN_MOTION_DDOT":0},{"OBJECT_NAME":"EUTELSAT 172B","OBJECT_ID":"2017-029B","EPOCH":"2026-02-01T19:47:38.647104","MEAN_MOTION":1.00268058,"ECCENTRICITY":2.597e-5,"INCLINATION":0.0203,"RA_OF_ASC_NODE":127.9922,"ARG_OF_PERICENTER":87.1018,"MEAN_ANOMALY":25.8117,"EPHEMERIS_TYPE":0,"CLASSIFICATION_TYPE":"U","NORAD_CAT_ID":42741,"ELEMENT_SET_NO":999,"REV_AT_EPOCH":3237,"BSTAR":0,"MEAN_MOTION_DOT":-1.7e-7,"MEAN_MOTION_DDOT":0},{"OBJECT_NAME":"EUTELSAT 7C","OBJECT_ID":"2019-034B","EPOCH":"2026-02-01T21:49:38.589888","MEAN_MOTION":1.00271003,"ECCENTRICITY":0.00034784,"INCLINATION":0.0772,"RA_OF_ASC_NODE":181.2308,"ARG_OF_PERICENTER":117.8009,"MEAN_ANOMALY":167.4338,"EPHEMERIS_TYPE":0,"CLASSIFICATION_TYPE":"U","NORAD_CAT_ID":44334,"ELEMENT_SET_NO":999,"REV_AT_EPOCH":547,"BSTAR":0,"MEAN_MOTION_DOT":3.8e-7,"MEAN_MOTION_DDOT":0},{"OBJECT_NAME":"EUTELSAT 5 WEST B","OBJECT_ID":"2019-067A","EPOCH":"2026-02-01T22:01:16.891104","MEAN_MOTION":1.00271823,"ECCENTRICITY":0.00032802,"INCLINATION":0.0926,"RA_OF_ASC_NODE":307.7531,"ARG_OF_PERICENTER":6.4626,"MEAN_ANOMALY":143.1747,"EPHEMERIS_TYPE":0,"CLASSIFICATION_TYPE":"U","NORAD_CAT_ID":44624,"ELEMENT_SET_NO":999,"REV_AT_EPOCH":2308,"BSTAR":0,"MEAN_MOTION_DOT":-5.2e-7,"MEAN_MOTION_DDOT":0},{"OBJECT_NAME":"EUTELSAT KONNECT","OBJECT_ID":"2020-005B","EPOCH":"2026-02-01T21:49:38.589888","MEAN_MOTION":1.00270378,"ECCENTRICITY":0.00015308,"INCLINATION":0.0668,"RA_OF_ASC_NODE":95.5862,"ARG_OF_PERICENTER":183.948,"MEAN_ANOMALY":187.1544,"EPHEMERIS_TYPE":0,"CLASSIFICATION_TYPE":"U","NORAD_CAT_ID":45027,"ELEMENT_SET_NO":999,"REV_AT_EPOCH":2298,"BSTAR":0,"MEAN_MOTION_DOT":3.9e-7,"MEAN_MOTION_DDOT":0},{"OBJECT_NAME":"EUTELSAT QUANTUM","OBJECT_ID":"2021-069B","EPOCH":"2026-02-01T22:16:15.456288","MEAN_MOTION":1.00271511,"ECCENTRICITY":0.00032599,"INCLINATION":0.0111,"RA_OF_ASC_NODE":51.0895,"ARG_OF_PERICENTER":260.2923,"MEAN_ANOMALY":202.4786,"EPHEMERIS_TYPE":0,"CLASSIFICATION_TYPE":"U","NORAD_CAT_ID":49056,"ELEMENT_SET_NO":999,"REV_AT_EPOCH":1657,"BSTAR":0,"MEAN_MOTION_DOT":1.16e-6,"MEAN_MOTION_DDOT":0},{"OBJECT_NAME":"EUTELSAT KONNECT VHTS","OBJECT_ID":"2022-110A","EPOCH":"2026-02-01T21:49:38.589888","MEAN_MOTION":1.00268784,"ECCENTRICITY":0.00031655,"INCLINATION":0.0587,"RA_OF_ASC_NODE":99.8727,"ARG_OF_PERICENTER":195.9987,"MEAN_ANOMALY":166.315,"EPHEMERIS_TYPE":0,"CLASSIFICATION_TYPE":"U","NORAD_CAT_ID":53765,"ELEMENT_SET_NO":999,"REV_AT_EPOCH":548,"BSTAR":0,"MEAN_MOTION_DOT":6.0e-8,"MEAN_MOTION_DDOT":0},{"OBJECT_NAME":"EUTELSAT HOTBIRD 13F","OBJECT_ID":"2022-134A","EPOCH":"2026-02-01T22:06:23.900544","MEAN_MOTION":1.00271613,"ECCENTRICITY":0.00022418,"INCLINATION":0.0562,"RA_OF_ASC_NODE":279.099,"ARG_OF_PERICENTER":76.8405,"MEAN_ANOMALY":120.7421,"EPHEMERIS_TYPE":0,"CLASSIFICATION_TYPE":"U","NORAD_CAT_ID":54048,"ELEMENT_SET_NO":999,"REV_AT_EPOCH":1202,"BSTAR":0,"MEAN_MOTION_DOT":7.7e-7,"MEAN_MOTION_DDOT":0},{"OBJECT_NAME":"EUTELSAT HOTBIRD 13G","OBJECT_ID":"2022-146A","EPOCH":"2026-02-01T21:33:38.716128","MEAN_MOTION":1.00271639,"ECCENTRICITY":0.0001826,"INCLINATION":0.0523,"RA_OF_ASC_NODE":246.7585,"ARG_OF_PERICENTER":301.3848,"MEAN_ANOMALY":280.3103,"EPHEMERIS_TYPE":0,"CLASSIFICATION_TYPE":"U","NORAD_CAT_ID":54225,"ELEMENT_SET_NO":999,"REV_AT_EPOCH":611,"BSTAR":0,"MEAN_MOTION_DOT":7.7e-7,"MEAN_MOTION_DDOT":0},{"OBJECT_NAME":"EUTELSAT 10B","OBJECT_ID":"2022-157A","EPOCH":"2026-02-01T22:05:31.484256","MEAN_MOTION":1.00273653,"ECCENTRICITY":5.069e-5,"INCLINATION":0.0577,"RA_OF_ASC_NODE":98.5269,"ARG_OF_PERICENTER":7.8758,"MEAN_ANOMALY":7.0533,"EPHEMERIS_TYPE":0,"CLASSIFICATION_TYPE":"U","NORAD_CAT_ID":54259,"ELEMENT_SET_NO":999,"REV_AT_EPOCH":1167,"BSTAR":0,"MEAN_MOTION_DOT":5.8e-7,"MEAN_MOTION_DDOT":0},{"OBJECT_NAME":"EUTELSAT 36D","OBJECT_ID":"2024-059A","EPOCH":"2026-02-01T22:12:53.279424","MEAN_MOTION":1.00279693,"ECCENTRICITY":9.374e-5,"INCLINATION":0.0269,"RA_OF_ASC_NODE":100.5021,"ARG_OF_PERICENTER":200.6515,"MEAN_ANOMALY":200.0665,"EPHEMERIS_TYPE":0,"CLASSIFICATION_TYPE":"U","NORAD_CAT_ID":59346,"ELEMENT_SET_NO":999,"REV_AT_EPOCH":679,"BSTAR":0,"MEAN_MOTION_DOT":0,"MEAN_MOTION_DDOT":0}]
